[{"OBJECT_NAME":"ONEWEB-0629","OBJECT_ID":"2023-004AG","EPOCH":"2025-09-14T03:52:30.895680","MEAN_MOTION":13.17650878,"ECCENTRICITY":0.0001616,"INCLINATION":87.9049,"RA_OF_ASC_NODE":60.7859,"ARG_OF_PERICENTER":99.7426,"MEAN_ANOMALY":260.3888,"EPHEMERIS_TYPE":0,"CLASSIFICATION_TYPE":"U","NORAD_CAT_ID":55170,"ELEMENT_SET_NO":999,"REV_AT_EPOCH":13123,"BSTAR":-0.0011810288,"MEAN_MOTION_DOT":-4.46e-6,"MEAN_MOTION_DDOT":0},{"OBJECT_NAME":"ONEWEB-0631","OBJECT_ID":"2023-004AH","EPOCH":"2025-09-14T03:19:08.271552","MEAN_MOTION":13.18683749,"ECCENTRICITY":0.00019945,"INCLINATION":87.9188,"RA_OF_ASC_NODE":30.2459,"ARG_OF_PERICENTER":113.7322,"MEAN_ANOMALY":246.402,"EPHEMERIS_TYPE":0,"CLASSIFICATION_TYPE":"U","NORAD_CAT_ID":55171,"ELEMENT_SET_NO":999,"REV_AT_EPOCH":13329,"BSTAR":-8.8080498e-5,"MEAN_MOTION_DOT":-2.2e-7,"MEAN_MOTION_DDOT":0},{"OBJECT_NAME":"ONEWEB-0709","OBJECT_ID":"2023-004AJ","EPOCH":"2025-09-14T05:44:02.364864","MEAN_MOTION":13.11417744,"ECCENTRICITY":0.00013853,"INCLINATION":87.8776,"RA_OF_ASC_NODE":76.0665,"ARG_OF_PERICENTER":123.297,"MEAN_ANOMALY":236.829,"EPHEMERIS_TYPE":0,"CLASSIFICATION_TYPE":"U","NORAD_CAT_ID":55172,"ELEMENT_SET_NO":999,"REV_AT_EPOCH":12970,"BSTAR":-0.00016302276,"MEAN_MOTION_DOT":-4.5e-7,"MEAN_MOTION_DDOT":0},{"OBJECT_NAME":"ONEWEB-0710","OBJECT_ID":"2023-004AK","EPOCH":"2025-09-13T22:45:06.128640","MEAN_MOTION":13.17650432,"ECCENTRICITY":0.00019318,"INCLINATION":87.9039,"RA_OF_ASC_NODE":60.8244,"ARG_OF_PERICENTER":93.1155,"MEAN_ANOMALY":267.0198,"EPHEMERIS_TYPE":0,"CLASSIFICATION_TYPE":"U","NORAD_CAT_ID":55173,"ELEMENT_SET_NO":999,"REV_AT_EPOCH":13120,"BSTAR":1.3282886e-5,"MEAN_MOTION_DOT":1.8e-7,"MEAN_MOTION_DDOT":0},{"OBJECT_NAME":"ONEWEB-0711","OBJECT_ID":"2023-004AL","EPOCH":"2025-09-14T05:02:32.041248","MEAN_MOTION":13.1141517,"ECCENTRICITY":0.00024777,"INCLINATION":87.8777,"RA_OF_ASC_NODE":76.0398,"ARG_OF_PERICENTER":91.2694,"MEAN_ANOMALY":268.8718,"EPHEMERIS_TYPE":0,"CLASSIFICATION_TYPE":"U","NORAD_CAT_ID":55174,"ELEMENT_SET_NO":999,"REV_AT_EPOCH":12966,"BSTAR":-0.00092602944,"MEAN_MOTION_DOT":-3.15e-6,"MEAN_MOTION_DDOT":0},{"OBJECT_NAME":"ONEWEB-0713","OBJECT_ID":"2023-004AM","EPOCH":"2025-09-14T05:29:23.537760","MEAN_MOTION":13.11418277,"ECCENTRICITY":0.00019841,"INCLINATION":87.8772,"RA_OF_ASC_NODE":76.0431,"ARG_OF_PERICENTER":90.5969,"MEAN_ANOMALY":269.5386,"EPHEMERIS_TYPE":0,"CLASSIFICATION_TYPE":"U","NORAD_CAT_ID":55175,"ELEMENT_SET_NO":999,"REV_AT_EPOCH":12965,"BSTAR":-0.0010678847,"MEAN_MOTION_DOT":-3.66e-6,"MEAN_MOTION_DDOT":0},{"OBJECT_NAME":"ONEWEB-0715","OBJECT_ID":"2023-004AN","EPOCH":"2025-09-14T05:22:04.802016","MEAN_MOTION":13.11418538,"ECCENTRICITY":0.0001794,"INCLINATION":87.8771,"RA_OF_ASC_NODE":76.0444,"ARG_OF_PERICENTER":114.1506,"MEAN_ANOMALY":245.9809,"EPHEMERIS_TYPE":0,"CLASSIFICATION_TYPE":"U","NORAD_CAT_ID":55176,"ELEMENT_SET_NO":999,"REV_AT_EPOCH":12969,"BSTAR":-0.0013872976,"MEAN_MOTION_DOT":-4.79e-6,"MEAN_MOTION_DDOT":0},{"OBJECT_NAME":"ONEWEB-0716","OBJECT_ID":"2023-004AP","EPOCH":"2025-09-13T22:35:23.714880","MEAN_MOTION":13.17649705,"ECCENTRICITY":0.00016598,"INCLINATION":87.9042,"RA_OF_ASC_NODE":60.8254,"ARG_OF_PERICENTER":78.9596,"MEAN_ANOMALY":281.1722,"EPHEMERIS_TYPE":0,"CLASSIFICATION_TYPE":"U","NORAD_CAT_ID":55177,"ELEMENT_SET_NO":999,"REV_AT_EPOCH":13120,"BSTAR":-0.00010293484,"MEAN_MOTION_DOT":-2.7e-7,"MEAN_MOTION_DDOT":0},{"OBJECT_NAME":"ONEWEB-0717","OBJECT_ID":"2023-004AQ","EPOCH":"2025-09-14T03:39:07.811136","MEAN_MOTION":13.17648457,"ECCENTRICITY":0.00024875,"INCLINATION":87.9051,"RA_OF_ASC_NODE":60.7462,"ARG_OF_PERICENTER":98.3397,"MEAN_ANOMALY":261.8017,"EPHEMERIS_TYPE":0,"CLASSIFICATION_TYPE":"U","NORAD_CAT_ID":55178,"ELEMENT_SET_NO":999,"REV_AT_EPOCH":13128,"BSTAR":-0.00016123328,"MEAN_MOTION_DOT":-5.0e-7,"MEAN_MOTION_DDOT":0},{"OBJECT_NAME":"ONEWEB-0719","OBJECT_ID":"2023-004AR","EPOCH":"2025-09-14T05:43:03.057312","MEAN_MOTION":13.17647404,"ECCENTRICITY":0.0001734,"INCLINATION":87.905,"RA_OF_ASC_NODE":60.7119,"ARG_OF_PERICENTER":84.5946,"MEAN_ANOMALY":275.5383,"EPHEMERIS_TYPE":0,"CLASSIFICATION_TYPE":"U","NORAD_CAT_ID":55179,"ELEMENT_SET_NO":999,"REV_AT_EPOCH":13124,"BSTAR":-3.724829e-6,"MEAN_MOTION_DOT":1.1e-7,"MEAN_MOTION_DDOT":0},{"OBJECT_NAME":"ONEWEB-0530","OBJECT_ID":"2023-029A","EPOCH":"2025-09-13T22:58:01.198848","MEAN_MOTION":13.20772113,"ECCENTRICITY":0.00023831,"INCLINATION":87.9276,"RA_OF_ASC_NODE":329.5558,"ARG_OF_PERICENTER":94.0162,"MEAN_ANOMALY":266.1244,"EPHEMERIS_TYPE":0,"CLASSIFICATION_TYPE":"U","NORAD_CAT_ID":55796,"ELEMENT_SET_NO":999,"REV_AT_EPOCH":12468,"BSTAR":0.00013932187,"MEAN_MOTION_DOT":7.0e-7,"MEAN_MOTION_DDOT":0},{"OBJECT_NAME":"ONEWEB-0534","OBJECT_ID":"2023-029B","EPOCH":"2025-09-14T04:07:06.951936","MEAN_MOTION":13.20772444,"ECCENTRICITY":0.00018154,"INCLINATION":87.9267,"RA_OF_ASC_NODE":329.5174,"ARG_OF_PERICENTER":96.1626,"MEAN_ANOMALY":263.9715,"EPHEMERIS_TYPE":0,"CLASSIFICATION_TYPE":"U","NORAD_CAT_ID":55797,"ELEMENT_SET_NO":999,"REV_AT_EPOCH":12471,"BSTAR":-0.00016421827,"MEAN_MOTION_DOT":-5.4e-7,"MEAN_MOTION_DDOT":0},{"OBJECT_NAME":"ONEWEB-0556","OBJECT_ID":"2023-029C","EPOCH":"2025-09-13T22:48:56.480544","MEAN_MOTION":13.20771843,"ECCENTRICITY":0.00021003,"INCLINATION":87.9274,"RA_OF_ASC_NODE":329.5563,"ARG_OF_PERICENTER":77.8458,"MEAN_ANOMALY":282.291,"EPHEMERIS_TYPE":0,"CLASSIFICATION_TYPE":"U","NORAD_CAT_ID":55798,"ELEMENT_SET_NO":999,"REV_AT_EPOCH":12468,"BSTAR":6.7958256e-5,"MEAN_MOTION_DOT":4.1e-7,"MEAN_MOTION_DDOT":0},{"OBJECT_NAME":"ONEWEB-0562","OBJECT_ID":"2023-029D","EPOCH":"2025-09-14T03:58:00.128928","MEAN_MOTION":13.20769699,"ECCENTRICITY":0.00026377,"INCLINATION":87.9269,"RA_OF_ASC_NODE":329.5011,"ARG_OF_PERICENTER":84.3767,"MEAN_ANOMALY":275.7667,"EPHEMERIS_TYPE":0,"CLASSIFICATION_TYPE":"U","NORAD_CAT_ID":55799,"ELEMENT_SET_NO":999,"REV_AT_EPOCH":12471,"BSTAR":0.00026392564,"MEAN_MOTION_DOT":1.2e-6,"MEAN_MOTION_DDOT":0},{"OBJECT_NAME":"ONEWEB-0563","OBJECT_ID":"2023-029E","EPOCH":"2025-09-14T03:48:52.684704","MEAN_MOTION":13.20774574,"ECCENTRICITY":0.00016961,"INCLINATION":87.9279,"RA_OF_ASC_NODE":329.5234,"ARG_OF_PERICENTER":92.5135,"MEAN_ANOMALY":267.6193,"EPHEMERIS_TYPE":0,"CLASSIFICATION_TYPE":"U","NORAD_CAT_ID":55800,"ELEMENT_SET_NO":999,"REV_AT_EPOCH":12470,"BSTAR":0.00026624128,"MEAN_MOTION_DOT":1.21e-6,"MEAN_MOTION_DDOT":0},{"OBJECT_NAME":"ONEWEB-0564","OBJECT_ID":"2023-029F","EPOCH":"2025-09-14T03:39:49.087008","MEAN_MOTION":13.20770449,"ECCENTRICITY":0.00022862,"INCLINATION":87.927,"RA_OF_ASC_NODE":329.5067,"ARG_OF_PERICENTER":93.7136,"MEAN_ANOMALY":266.4259,"EPHEMERIS_TYPE":0,"CLASSIFICATION_TYPE":"U","NORAD_CAT_ID":55801,"ELEMENT_SET_NO":999,"REV_AT_EPOCH":12471,"BSTAR":0.0001766861,"MEAN_MOTION_DOT":8.5e-7,"MEAN_MOTION_DDOT":0},{"OBJECT_NAME":"ONEWEB-0638","OBJECT_ID":"2023-029G","EPOCH":"2025-09-14T00:13:31.280448","MEAN_MOTION":13.14503643,"ECCENTRICITY":0.00019714,"INCLINATION":87.9092,"RA_OF_ASC_NODE":344.7588,"ARG_OF_PERICENTER":85.3847,"MEAN_ANOMALY":274.7508,"EPHEMERIS_TYPE":0,"CLASSIFICATION_TYPE":"U","NORAD_CAT_ID":55802,"ELEMENT_SET_NO":999,"REV_AT_EPOCH":12311,"BSTAR":0.000506757,"MEAN_MOTION_DOT":2.01e-6,"MEAN_MOTION_DDOT":0},{"OBJECT_NAME":"ONEWEB-0639","OBJECT_ID":"2023-029H","EPOCH":"2025-09-14T05:03:00.209376","MEAN_MOTION":13.19725137,"ECCENTRICITY":7.259e-5,"INCLINATION":87.9283,"RA_OF_ASC_NODE":359.864,"ARG_OF_PERICENTER":114.0212,"MEAN_ANOMALY":246.0997,"EPHEMERIS_TYPE":0,"CLASSIFICATION_TYPE":"U","NORAD_CAT_ID":55803,"ELEMENT_SET_NO":999,"REV_AT_EPOCH":12250,"BSTAR":0.00023963712,"MEAN_MOTION_DOT":1.09e-6,"MEAN_MOTION_DDOT":0},{"OBJECT_NAME":"ONEWEB-0640","OBJECT_ID":"2023-029J","EPOCH":"2025-09-14T05:56:03.340896","MEAN_MOTION":13.14503439,"ECCENTRICITY":0.00016203,"INCLINATION":87.9086,"RA_OF_ASC_NODE":344.6968,"ARG_OF_PERICENTER":76.8691,"MEAN_ANOMALY":283.2619,"EPHEMERIS_TYPE":0,"CLASSIFICATION_TYPE":"U","NORAD_CAT_ID":55804,"ELEMENT_SET_NO":999,"REV_AT_EPOCH":12316,"BSTAR":0.00024950404,"MEAN_MOTION_DOT":1.05e-6,"MEAN_MOTION_DDOT":0},{"OBJECT_NAME":"ONEWEB-0641","OBJECT_ID":"2023-029K","EPOCH":"2025-09-14T01:17:48.952320","MEAN_MOTION":13.1972308,"ECCENTRICITY":0.00015998,"INCLINATION":87.929,"RA_OF_ASC_NODE":359.8682,"ARG_OF_PERICENTER":102.5363,"MEAN_ANOMALY":257.5948,"EPHEMERIS_TYPE":0,"CLASSIFICATION_TYPE":"U","NORAD_CAT_ID":55805,"ELEMENT_SET_NO":999,"REV_AT_EPOCH":12249,"BSTAR":-2.1517775e-5,"MEAN_MOTION_DOT":4.0e-8,"MEAN_MOTION_DDOT":0},{"OBJECT_NAME":"ONEWEB-0642","OBJECT_ID":"2023-029L","EPOCH":"2025-09-13T19:43:28.356672","MEAN_MOTION":13.19725138,"ECCENTRICITY":0.00010659,"INCLINATION":87.9279,"RA_OF_ASC_NODE":359.9482,"ARG_OF_PERICENTER":121.7845,"MEAN_ANOMALY":238.3391,"EPHEMERIS_TYPE":0,"CLASSIFICATION_TYPE":"U","NORAD_CAT_ID":55806,"ELEMENT_SET_NO":999,"REV_AT_EPOCH":12245,"BSTAR":-0.00017997468,"MEAN_MOTION_DOT":-5.9e-7,"MEAN_MOTION_DDOT":0},{"OBJECT_NAME":"ONEWEB-0643","OBJECT_ID":"2023-029M","EPOCH":"2025-09-14T05:12:38.613312","MEAN_MOTION":13.14505175,"ECCENTRICITY":0.00015047,"INCLINATION":87.9086,"RA_OF_ASC_NODE":344.6864,"ARG_OF_PERICENTER":123.7138,"MEAN_ANOMALY":236.4136,"EPHEMERIS_TYPE":0,"CLASSIFICATION_TYPE":"U","NORAD_CAT_ID":55807,"ELEMENT_SET_NO":999,"REV_AT_EPOCH":12313,"BSTAR":8.8238538e-5,"MEAN_MOTION_DOT":4.5e-7,"MEAN_MOTION_DDOT":0},{"OBJECT_NAME":"ONEWEB-0644","OBJECT_ID":"2023-029N","EPOCH":"2025-09-14T06:31:42.946176","MEAN_MOTION":13.19724429,"ECCENTRICITY":0.00013767,"INCLINATION":87.9283,"RA_OF_ASC_NODE":359.8666,"ARG_OF_PERICENTER":110.2037,"MEAN_ANOMALY":249.9244,"EPHEMERIS_TYPE":0,"CLASSIFICATION_TYPE":"U","NORAD_CAT_ID":55808,"ELEMENT_SET_NO":999,"REV_AT_EPOCH":12251,"BSTAR":-0.00013713526,"MEAN_MOTION_DOT":-4.2e-7,"MEAN_MOTION_DDOT":0}]
